{"type": "FeatureCollection", "features": [{"type": "Feature", "properties": {"road_id": "R-001", "name": "Road 1", "type": "Collector", "speed_limit": 55}, "geometry": {"type": "LineString", "coordinates": [[-78.60803087322857, 35.77611889131129], [-78.61206438340992, 35.76914330565251], [-78.6197278352498, 35.770006050011304], [-78.61831279341924, 35.762121103435064]]}}, {"type": "Feature", "properties": {"road_id": "R-002", "name": "Road 2", "type": "Highway", "speed_limit": 35}, "geometry": {"type": "LineString", "coordinates": [[-78.67460797375118, 35.74251303664424], [-78.67732111792589, 35.742739534561174], [-78.68086548170245, 35.742506166547585], [-78.68023773880014, 35.74607980760168]]}}, {"type": "Feature", "properties": {"road_id": "R-003", "name": "Road 3", "type": "Local", "speed_limit": 35}, "geometry": {"type": "LineString", "coordinates": [[-78.61723044605674, 35.804599759821336], [-78.62218388742694, 35.798150652848996], [-78.62328706850845, 35.79692791081732], [-78.62381467381987, 35.80059312440867]]}}, {"type": "Feature", "properties": {"road_id": "R-004", "name": "Road 4", "type": "Highway", "speed_limit": 25}, "geometry": {"type": "LineString", "coordinates": [[-78.64779029743183, 35.767144208431596], [-78.64200353685018, 35.76312270977432], [-78.64696019431513, 35.762300526539654], [-78.64821008807778, 35.75875724885432]]}}, {"type": "Feature", "properties": {"road_id": "R-005", "name": "Road 5", "type": "Arterial", "speed_limit": 25}, "geometry": {"type": "LineString", "coordinates": [[-78.64454954039573, 35.80890792838095], [-78.64374433539653, 35.801717341653344], [-78.63575581590193, 35.80709378301462], [-78.62825187578538, 35.81391565474275]]}}, {"type": "Feature", "properties": {"road_id": "R-006", "name": "Road 6", "type": "Arterial", "speed_limit": 35}, "geometry": {"type": "LineString", "coordinates": [[-78.6474868753638, 35.778508673437685], [-78.64165246905931, 35.784947759285856], [-78.64701827511688, 35.77698224533948], [-78.64877152699547, 35.78380653451643]]}}, {"type": "Feature", "properties": {"road_id": "R-007", "name": "Road 7", "type": "Local", "speed_limit": 45}, "geometry": {"type": "LineString", "coordinates": [[-78.64615940112078, 35.816585411268775], [-78.6382326380889, 35.81747770444326], [-78.63473810568415, 35.81195445364765], [-78.63799078047624, 35.81945380348716]]}}, {"type": "Feature", "properties": {"road_id": "R-008", "name": "Road 8", "type": "Highway", "speed_limit": 45}, "geometry": {"type": "LineString", "coordinates": [[-78.6754267781674, 35.78673420755672], [-78.67538117204069, 35.79237772582949], [-78.68086224839365, 35.799750188281884], [-78.6875804649498, 35.79472338765758]]}}]}