{"type": "FeatureCollection", "features": [{"type": "Feature", "properties": {"amenity_id": "A-001", "name": "School 1", "type": "Library"}, "geometry": {"type": "Point", "coordinates": [-78.66294765501864, 35.761216033180034]}}, {"type": "Feature", "properties": {"amenity_id": "A-002", "name": "Park 2", "type": "School"}, "geometry": {"type": "Point", "coordinates": [-78.60965838060123, 35.76956216709911]}}, {"type": "Feature", "properties": {"amenity_id": "A-003", "name": "Hospital 3", "type": "Fire Station"}, "geometry": {"type": "Point", "coordinates": [-78.61330040362881, 35.79628319400699]}}, {"type": "Feature", "properties": {"amenity_id": "A-004", "name": "Library 4", "type": "Transit Stop"}, "geometry": {"type": "Point", "coordinates": [-78.62768189458315, 35.74062584857217]}}, {"type": "Feature", "properties": {"amenity_id": "A-005", "name": "Transit Stop 5", "type": "Library"}, "geometry": {"type": "Point", "coordinates": [-78.656049699824, 35.793071097197284]}}, {"type": "Feature", "properties": {"amenity_id": "A-006", "name": "Hospital 6", "type": "Park"}, "geometry": {"type": "Point", "coordinates": [-78.67076570636647, 35.74856287821675]}}, {"type": "Feature", "properties": {"amenity_id": "A-007", "name": "Library 7", "type": "Hospital"}, "geometry": {"type": "Point", "coordinates": [-78.65821214301482, 35.78838638616242]}}, {"type": "Feature", "properties": {"amenity_id": "A-008", "name": "Shopping Center 8", "type": "Park"}, "geometry": {"type": "Point", "coordinates": [-78.6637122150138, 35.79073903671081]}}, {"type": "Feature", "properties": {"amenity_id": "A-009", "name": "Park 9", "type": "Library"}, "geometry": {"type": "Point", "coordinates": [-78.64091745182805, 35.812426919286345]}}, {"type": "Feature", "properties": {"amenity_id": "A-010", "name": "Transit Stop 10", "type": "School"}, "geometry": {"type": "Point", "coordinates": [-78.67261612258298, 35.7738860618051]}}, {"type": "Feature", "properties": {"amenity_id": "A-011", "name": "Park 11", "type": "School"}, "geometry": {"type": "Point", "coordinates": [-78.67971634487297, 35.80168953784157]}}, {"type": "Feature", "properties": {"amenity_id": "A-012", "name": "Shopping Center 12", "type": "Park"}, "geometry": {"type": "Point", "coordinates": [-78.66707344189808, 35.77534684094887]}}, {"type": "Feature", "properties": {"amenity_id": "A-013", "name": "Shopping Center 13", "type": "Fire Station"}, "geometry": {"type": "Point", "coordinates": [-78.63512745081802, 35.748949910447145]}}, {"type": "Feature", "properties": {"amenity_id": "A-014", "name": "Shopping Center 14", "type": "Hospital"}, "geometry": {"type": "Point", "coordinates": [-78.63635277686356, 35.806767601590884]}}, {"type": "Feature", "properties": {"amenity_id": "A-015", "name": "Library 15", "type": "Library"}, "geometry": {"type": "Point", "coordinates": [-78.66815249715461, 35.750195641542575]}}]}