{"type": "FeatureCollection", "features": [{"type": "Feature", "properties": {"zone_id": "FZ-001", "flood_zone": "AE", "risk_level": "Low"}, "geometry": {"type": "Polygon", "coordinates": [[[-78.65934753265792, 35.79729595939423], [-78.63604837913117, 35.79729595939423], [-78.63604837913117, 35.820595112920984], [-78.65934753265792, 35.820595112920984], [-78.65934753265792, 35.79729595939423]]]}}, {"type": "Feature", "properties": {"zone_id": "FZ-002", "flood_zone": "A", "risk_level": "Low"}, "geometry": {"type": "Polygon", "coordinates": [[[-78.63896482866545, 35.77904618279066], [-78.62193412968142, 35.77904618279066], [-78.62193412968142, 35.79607688177469], [-78.63896482866545, 35.79607688177469], [-78.63896482866545, 35.77904618279066]]]}}, {"type": "Feature", "properties": {"zone_id": "FZ-003", "flood_zone": "X500", "risk_level": "Moderate"}, "geometry": {"type": "Polygon", "coordinates": [[[-78.63013677165254, 35.74890862023819], [-78.61527254022114, 35.74890862023819], [-78.61527254022114, 35.76377285166958], [-78.63013677165254, 35.76377285166958], [-78.63013677165254, 35.74890862023819]]]}}, {"type": "Feature", "properties": {"zone_id": "FZ-004", "flood_zone": "VE", "risk_level": "High"}, "geometry": {"type": "Polygon", "coordinates": [[[-78.66389729679373, 35.78583815465917], [-78.64810317043846, 35.78583815465917], [-78.64810317043846, 35.80163228101443], [-78.66389729679373, 35.80163228101443], [-78.66389729679373, 35.78583815465917]]]}}, {"type": "Feature", "properties": {"zone_id": "FZ-005", "flood_zone": "AE", "risk_level": "High"}, "geometry": {"type": "Polygon", "coordinates": [[[-78.61210022341876, 35.76468626312236], [-78.58814706604451, 35.76468626312236], [-78.58814706604451, 35.78863942049662], [-78.61210022341876, 35.78863942049662], [-78.61210022341876, 35.76468626312236]]]}}]}