{"type": "FeatureCollection", "features": [{"type": "Feature", "properties": {"amenity_id": "A-001", "name": "Fire Station 1", "type": "Hospital", "rating": 2.8}, "geometry": {"type": "Point", "coordinates": [-78.62602772904334, 35.78880417816882]}}, {"type": "Feature", "properties": {"amenity_id": "A-002", "name": "Fire Station 2", "type": "Transit Stop", "rating": 4.6}, "geometry": {"type": "Point", "coordinates": [-78.61653468801448, 35.78999612895764]}}, {"type": "Feature", "properties": {"amenity_id": "A-003", "name": "Library 3", "type": "Transit Stop", "rating": 2.0}, "geometry": {"type": "Point", "coordinates": [-78.6339882334095, 35.796006506249]}}, {"type": "Feature", "properties": {"amenity_id": "A-004", "name": "Hospital 4", "type": "Hospital", "rating": 3.2}, "geometry": {"type": "Point", "coordinates": [-78.6199286899196, 35.78686525552368]}}, {"type": "Feature", "properties": {"amenity_id": "A-005", "name": "School 5", "type": "Hospital", "rating": 3.1}, "geometry": {"type": "Point", "coordinates": [-78.6177069921194, 35.79462716835942]}}, {"type": "Feature", "properties": {"amenity_id": "A-006", "name": "Transit Stop 6", "type": "Transit Stop", "rating": 3.4}, "geometry": {"type": "Point", "coordinates": [-78.62969593883656, 35.8047061768756]}}, {"type": "Feature", "properties": {"amenity_id": "A-007", "name": "Transit Stop 7", "type": "Library", "rating": 4.0}, "geometry": {"type": "Point", "coordinates": [-78.6158536471828, 35.793460149719806]}}, {"type": "Feature", "properties": {"amenity_id": "A-008", "name": "Hospital 8", "type": "School", "rating": 3.7}, "geometry": {"type": "Point", "coordinates": [-78.63120204265465, 35.79473342823309]}}, {"type": "Feature", "properties": {"amenity_id": "A-009", "name": "School 9", "type": "School", "rating": 3.8}, "geometry": {"type": "Point", "coordinates": [-78.65378036659432, 35.76313292802062]}}, {"type": "Feature", "properties": {"amenity_id": "A-010", "name": "Hospital 10", "type": "School", "rating": 4.9}, "geometry": {"type": "Point", "coordinates": [-78.65220920161927, 35.762542755743794]}}, {"type": "Feature", "properties": {"amenity_id": "A-011", "name": "Library 11", "type": "School", "rating": 4.0}, "geometry": {"type": "Point", "coordinates": [-78.66221262558528, 35.75620167197861]}}, {"type": "Feature", "properties": {"amenity_id": "A-012", "name": "Library 12", "type": "Hospital", "rating": 3.7}, "geometry": {"type": "Point", "coordinates": [-78.6632017007908, 35.758528058425014]}}, {"type": "Feature", "properties": {"amenity_id": "A-013", "name": "Shopping Center 13", "type": "Library", "rating": 3.7}, "geometry": {"type": "Point", "coordinates": [-78.66377024891757, 35.755596124934335]}}, {"type": "Feature", "properties": {"amenity_id": "A-014", "name": "Shopping Center 14", "type": "Shopping Center", "rating": 2.9}, "geometry": {"type": "Point", "coordinates": [-78.65913874435171, 35.76530958767814]}}, {"type": "Feature", "properties": {"amenity_id": "A-015", "name": "Shopping Center 15", "type": "Park", "rating": 3.4}, "geometry": {"type": "Point", "coordinates": [-78.6695297374298, 35.76124916100251]}}, {"type": "Feature", "properties": {"amenity_id": "A-016", "name": "School 16", "type": "Fire Station", "rating": 3.9}, "geometry": {"type": "Point", "coordinates": [-78.60514125700442, 35.81432146653644]}}, {"type": "Feature", "properties": {"amenity_id": "A-017", "name": "Library 17", "type": "Hospital", "rating": 3.5}, "geometry": {"type": "Point", "coordinates": [-78.67200150008604, 35.78503949165112]}}, {"type": "Feature", "properties": {"amenity_id": "A-018", "name": "School 18", "type": "Hospital", "rating": 3.1}, "geometry": {"type": "Point", "coordinates": [-78.65207929320285, 35.75059652562932]}}, {"type": "Feature", "properties": {"amenity_id": "A-019", "name": "Shopping Center 19", "type": "Park", "rating": 3.8}, "geometry": {"type": "Point", "coordinates": [-78.61330040362881, 35.75261974658858]}}, {"type": "Feature", "properties": {"amenity_id": "A-020", "name": "School 20", "type": "Shopping Center", "rating": 4.5}, "geometry": {"type": "Point", "coordinates": [-78.62768189458315, 35.818978645090525]}}]}