{
  "type": "FeatureCollection",
  "features": [
    {
      "type": "Feature",
      "properties": {
        "zone_id": "FZ-001",
        "flood_zone": "A",
        "risk_level": "Low"
      },
      "geometry": {
        "type": "Polygon",
        "coordinates": [
          [
            [
              -78.66366347687944,
              35.775190831588084
            ],
            [
              -78.65178016088623,
              35.775190831588084
            ],
            [
              -78.65178016088623,
              35.787074147581286
            ],
            [
              -78.66366347687944,
              35.787074147581286
            ],
            [
              -78.66366347687944,
              35.775190831588084
            ]
          ]
        ]
      }
    },
    {
      "type": "Feature",
      "properties": {
        "zone_id": "FZ-002",
        "flood_zone": "VE",
        "risk_level": "Moderate"
      },
      "geometry": {
        "type": "Polygon",
        "coordinates": [
          [
            [
              -78.64020723663923,
              35.80895045514121
            ],
            [
              -78.62842586842872,
              35.80895045514121
            ],
            [
              -78.62842586842872,
              35.8207318233517
            ],
            [
              -78.64020723663923,
              35.8207318233517
            ],
            [
              -78.64020723663923,
              35.80895045514121
            ]
          ]
        ]
      }
    },
    {
      "type": "Feature",
      "properties": {
        "zone_id": "FZ-003",
        "flood_zone": "VE",
        "risk_level": "Moderate"
      },
      "geometry": {
        "type": "Polygon",
        "coordinates": [
          [
            [
              -78.67796973959133,
              35.749508588419324
            ],
            [
              -78.66652133013207,
              35.749508588419324
            ],
            [
              -78.66652133013207,
              35.76095699787857
            ],
            [
              -78.67796973959133,
              35.76095699787857
            ],
            [
              -78.67796973959133,
              35.749508588419324
            ]
          ]
        ]
      }
    },
    {
      "type": "Feature",
      "properties": {
        "zone_id": "FZ-004",
        "flood_zone": "AE",
        "risk_level": "High"
      },
      "geometry": {
        "type": "Polygon",
        "coordinates": [
          [
            [
              -78.62836739023238,
              35.77066851525376
            ],
            [
              -78.61498047385403,
              35.77066851525376
            ],
            [
              -78.61498047385403,
              35.78405543163211
            ],
            [
              -78.62836739023238,
              35.78405543163211
            ],
            [
              -78.62836739023238,
              35.77066851525376
            ]
          ]
        ]
      }
    },
    {
      "type": "Feature",
      "properties": {
        "zone_id": "FZ-005",
        "flood_zone": "A",
        "risk_level": "High"
      },
      "geometry": {
        "type": "Polygon",
        "coordinates": [
          [
            [
              -78.66030248171381,
              35.76476301242277
            ],
            [
              -78.64540910142298,
              35.76476301242277
            ],
            [
              -78.64540910142298,
              35.7796563927136
            ],
            [
              -78.66030248171381,
              35.7796563927136
            ],
            [
              -78.66030248171381,
              35.76476301242277
            ]
          ]
        ]
      }
    }
  ]
}