{
  "type": "FeatureCollection",
  "features": [
    {
      "type": "Feature",
      "properties": {
        "parcel_id": "P-001",
        "area_sqm": 4901.7,
        "zoning": "Residential"
      },
      "geometry": {
        "type": "Polygon",
        "coordinates": [
          [
            [
              -78.68381250095668,
              35.73864516321628
            ],
            [
              -78.67998741300157,
              35.73864516321628
            ],
            [
              -78.67998741300157,
              35.74247025117139
            ],
            [
              -78.68381250095668,
              35.74247025117139
            ],
            [
              -78.68381250095668,
              35.73864516321628
            ]
          ]
        ]
      }
    },
    {
      "type": "Feature",
      "properties": {
        "parcel_id": "P-002",
        "area_sqm": 7485.0,
        "zoning": "Residential"
      },
      "geometry": {
        "type": "Polygon",
        "coordinates": [
          [
            [
              -78.6667283566448,
              35.73907638970075
            ],
            [
              -78.66346754014691,
              35.73907638970075
            ],
            [
              -78.66346754014691,
              35.742337206198634
            ],
            [
              -78.6667283566448,
              35.742337206198634
            ],
            [
              -78.6667283566448,
              35.73907638970075
            ]
          ]
        ]
      }
    },
    {
      "type": "Feature",
      "properties": {
        "parcel_id": "P-003",
        "area_sqm": 9296.2,
        "zoning": "Industrial"
      },
      "geometry": {
        "type": "Polygon",
        "coordinates": [
          [
            [
              -78.65680571785336,
              35.73597175286587
            ],
            [
              -78.6519996616662,
              35.73597175286587
            ],
            [
              -78.6519996616662,
              35.74077780905302
            ],
            [
              -78.65680571785336,
              35.74077780905302
            ],
            [
              -78.65680571785336,
              35.73597175286587
            ]
          ]
        ]
      }
    },
    {
      "type": "Feature",
      "properties": {
        "parcel_id": "P-004",
        "area_sqm": 2084.5,
        "zoning": "Commercial"
      },
      "geometry": {
        "type": "Polygon",
        "coordinates": [
          [
            [
              -78.64235708294952,
              35.736167616803144
            ],
            [
              -78.63692879157948,
              35.736167616803144
            ],
            [
              -78.63692879157948,
              35.74159590817318
            ],
            [
              -78.64235708294952,
              35.74159590817318
            ],
            [
              -78.64235708294952,
              35.736167616803144
            ]
          ]
        ]
      }
    },
    {
      "type": "Feature",
      "properties": {
        "parcel_id": "P-005",
        "area_sqm": 14443.8,
        "zoning": "Mixed-Use"
      },
      "geometry": {
        "type": "Polygon",
        "coordinates": [
          [
            [
              -78.62903888385033,
              35.73905933833024
            ],
            [
              -78.6255724453509,
              35.73905933833024
            ],
            [
              -78.6255724453509,
              35.74252577682967
            ],
            [
              -78.62903888385033,
              35.74252577682967
            ],
            [
              -78.62903888385033,
              35.73905933833024
            ]
          ]
        ]
      }
    },
    {
      "type": "Feature",
      "properties": {
        "parcel_id": "P-006",
        "area_sqm": 6471.4,
        "zoning": "Mixed-Use"
      },
      "geometry": {
        "type": "Polygon",
        "coordinates": [
          [
            [
              -78.61585209320153,
              35.73637037203535
            ],
            [
              -78.61177515506007,
              35.73637037203535
            ],
            [
              -78.61177515506007,
              35.740447310176805
            ],
            [
              -78.61585209320153,
              35.740447310176805
            ],
            [
              -78.61585209320153,
              35.73637037203535
            ]
          ]
        ]
      }
    },
    {
      "type": "Feature",
      "properties": {
        "parcel_id": "P-007",
        "area_sqm": 14650.5,
        "zoning": "Industrial"
      },
      "geometry": {
        "type": "Polygon",
        "coordinates": [
          [
            [
              -78.68138541499042,
              35.75492417095592
            ],
            [
              -78.67677673071606,
              35.75492417095592
            ],
            [
              -78.67677673071606,
              35.759532855230276
            ],
            [
              -78.68138541499042,
              35.759532855230276
            ],
            [
              -78.68138541499042,
              35.75492417095592
            ]
          ]
        ]
      }
    },
    {
      "type": "Feature",
      "properties": {
        "parcel_id": "P-008",
        "area_sqm": 13510.9,
        "zoning": "Mixed-Use"
      },
      "geometry": {
        "type": "Polygon",
        "coordinates": [
          [
            [
              -78.66993691324028,
              35.75187224109307
            ],
            [
              -78.6650509938418,
              35.75187224109307
            ],
            [
              -78.6650509938418,
              35.75675816049156
            ],
            [
              -78.66993691324028,
              35.75675816049156
            ],
            [
              -78.66993691324028,
              35.75187224109307
            ]
          ]
        ]
      }
    },
    {
      "type": "Feature",
      "properties": {
        "parcel_id": "P-009",
        "area_sqm": 4962.7,
        "zoning": "Mixed-Use"
      },
      "geometry": {
        "type": "Polygon",
        "coordinates": [
          [
            [
              -78.65408378256396,
              35.75474067200554
            ],
            [
              -78.650946309413,
              35.75474067200554
            ],
            [
              -78.650946309413,
              35.75787814515651
            ],
            [
              -78.65408378256396,
              35.75787814515651
            ],
            [
              -78.65408378256396,
              35.75474067200554
            ]
          ]
        ]
      }
    },
    {
      "type": "Feature",
      "properties": {
        "parcel_id": "P-010",
        "area_sqm": 6941.6,
        "zoning": "Industrial"
      },
      "geometry": {
        "type": "Polygon",
        "coordinates": [
          [
            [
              -78.64137845461607,
              35.75514116058251
            ],
            [
              -78.6357790036158,
              35.75514116058251
            ],
            [
              -78.6357790036158,
              35.760740611582776
            ],
            [
              -78.64137845461607,
              35.760740611582776
            ],
            [
              -78.64137845461607,
              35.75514116058251
            ]
          ]
        ]
      }
    },
    {
      "type": "Feature",
      "properties": {
        "parcel_id": "P-011",
        "area_sqm": 4723.6,
        "zoning": "Mixed-Use"
      },
      "geometry": {
        "type": "Polygon",
        "coordinates": [
          [
            [
              -78.62926260940147,
              35.75448746632639
            ],
            [
              -78.62515206650012,
              35.75448746632639
            ],
            [
              -78.62515206650012,
              35.75859800922773
            ],
            [
              -78.62926260940147,
              35.75859800922773
            ],
            [
              -78.62926260940147,
              35.75448746632639
            ]
          ]
        ]
      }
    },
    {
      "type": "Feature",
      "properties": {
        "parcel_id": "P-012",
        "area_sqm": 10254.7,
        "zoning": "Commercial"
      },
      "geometry": {
        "type": "Polygon",
        "coordinates": [
          [
            [
              -78.61420624643557,
              35.75520017748946
            ],
            [
              -78.61099203890683,
              35.75520017748946
            ],
            [
              -78.61099203890683,
              35.758414385018206
            ],
            [
              -78.61420624643557,
              35.758414385018206
            ],
            [
              -78.61420624643557,
              35.75520017748946
            ]
          ]
        ]
      }
    },
    {
      "type": "Feature",
      "properties": {
        "parcel_id": "P-013",
        "area_sqm": 10320.0,
        "zoning": "Commercial"
      },
      "geometry": {
        "type": "Polygon",
        "coordinates": [
          [
            [
              -78.68346646325894,
              35.7676693249491
            ],
            [
              -78.67749789320702,
              35.7676693249491
            ],
            [
              -78.67749789320702,
              35.773637895001
            ],
            [
              -78.68346646325894,
              35.773637895001
            ],
            [
              -78.68346646325894,
              35.7676693249491
            ]
          ]
        ]
      }
    },
    {
      "type": "Feature",
      "properties": {
        "parcel_id": "P-014",
        "area_sqm": 4977.6,
        "zoning": "Residential"
      },
      "geometry": {
        "type": "Polygon",
        "coordinates": [
          [
            [
              -78.66795925885323,
              35.770074457136644
            ],
            [
              -78.66263125911858,
              35.770074457136644
            ],
            [
              -78.66263125911858,
              35.77540245687128
            ],
            [
              -78.66795925885323,
              35.77540245687128
            ],
            [
              -78.66795925885323,
              35.770074457136644
            ]
          ]
        ]
      }
    },
    {
      "type": "Feature",
      "properties": {
        "parcel_id": "P-015",
        "area_sqm": 13870.8,
        "zoning": "Mixed-Use"
      },
      "geometry": {
        "type": "Polygon",
        "coordinates": [
          [
            [
              -78.65532795709306,
              35.77162090029527
            ],
            [
              -78.65212939127743,
              35.77162090029527
            ],
            [
              -78.65212939127743,
              35.774819466110905
            ],
            [
              -78.65532795709306,
              35.774819466110905
            ],
            [
              -78.65532795709306,
              35.77162090029527
            ]
          ]
        ]
      }
    },
    {
      "type": "Feature",
      "properties": {
        "parcel_id": "P-016",
        "area_sqm": 10357.1,
        "zoning": "Commercial"
      },
      "geometry": {
        "type": "Polygon",
        "coordinates": [
          [
            [
              -78.64283009969287,
              35.76802348144539
            ],
            [
              -78.6371760502312,
              35.76802348144539
            ],
            [
              -78.6371760502312,
              35.773677530907044
            ],
            [
              -78.64283009969287,
              35.773677530907044
            ],
            [
              -78.64283009969287,
              35.76802348144539
            ]
          ]
        ]
      }
    },
    {
      "type": "Feature",
      "properties": {
        "parcel_id": "P-017",
        "area_sqm": 5415.6,
        "zoning": "Industrial"
      },
      "geometry": {
        "type": "Polygon",
        "coordinates": [
          [
            [
              -78.63002220883715,
              35.76871746846475
            ],
            [
              -78.62533810443466,
              35.76871746846475
            ],
            [
              -78.62533810443466,
              35.773401572867236
            ],
            [
              -78.63002220883715,
              35.773401572867236
            ],
            [
              -78.63002220883715,
              35.76871746846475
            ]
          ]
        ]
      }
    },
    {
      "type": "Feature",
      "properties": {
        "parcel_id": "P-018",
        "area_sqm": 14968.0,
        "zoning": "Industrial"
      },
      "geometry": {
        "type": "Polygon",
        "coordinates": [
          [
            [
              -78.61556471245152,
              35.77176231039567
            ],
            [
              -78.61190675017406,
              35.77176231039567
            ],
            [
              -78.61190675017406,
              35.775420272673145
            ],
            [
              -78.61556471245152,
              35.775420272673145
            ],
            [
              -78.61556471245152,
              35.77176231039567
            ]
          ]
        ]
      }
    },
    {
      "type": "Feature",
      "properties": {
        "parcel_id": "P-019",
        "area_sqm": 10156.8,
        "zoning": "Industrial"
      },
      "geometry": {
        "type": "Polygon",
        "coordinates": [
          [
            [
              -78.68347600819384,
              35.78469916395317
            ],
            [
              -78.68014706080278,
              35.78469916395317
            ],
            [
              -78.68014706080278,
              35.788028111344225
            ],
            [
              -78.68347600819384,
              35.788028111344225
            ],
            [
              -78.68347600819384,
              35.78469916395317
            ]
          ]
        ]
      }
    },
    {
      "type": "Feature",
      "properties": {
        "parcel_id": "P-020",
        "area_sqm": 8084.6,
        "zoning": "Mixed-Use"
      },
      "geometry": {
        "type": "Polygon",
        "coordinates": [
          [
            [
              -78.66952143006252,
              35.78599180348039
            ],
            [
              -78.66473376477744,
              35.78599180348039
            ],
            [
              -78.66473376477744,
              35.79077946876547
            ],
            [
              -78.66952143006252,
              35.79077946876547
            ],
            [
              -78.66952143006252,
              35.78599180348039
            ]
          ]
        ]
      }
    },
    {
      "type": "Feature",
      "properties": {
        "parcel_id": "P-021",
        "area_sqm": 11369.4,
        "zoning": "Mixed-Use"
      },
      "geometry": {
        "type": "Polygon",
        "coordinates": [
          [
            [
              -78.65340743605731,
              35.78836709197754
            ],
            [
              -78.65037299299149,
              35.78836709197754
            ],
            [
              -78.65037299299149,
              35.79140153504337
            ],
            [
              -78.65340743605731,
              35.79140153504337
            ],
            [
              -78.65340743605731,
              35.78836709197754
            ]
          ]
        ]
      }
    },
    {
      "type": "Feature",
      "properties": {
        "parcel_id": "P-022",
        "area_sqm": 4056.1,
        "zoning": "Residential"
      },
      "geometry": {
        "type": "Polygon",
        "coordinates": [
          [
            [
              -78.64257954830084,
              35.787134144737664
            ],
            [
              -78.6386990479149,
              35.787134144737664
            ],
            [
              -78.6386990479149,
              35.79101464512361
            ],
            [
              -78.64257954830084,
              35.79101464512361
            ],
            [
              -78.64257954830084,
              35.787134144737664
            ]
          ]
        ]
      }
    },
    {
      "type": "Feature",
      "properties": {
        "parcel_id": "P-023",
        "area_sqm": 8507.6,
        "zoning": "Commercial"
      },
      "geometry": {
        "type": "Polygon",
        "coordinates": [
          [
            [
              -78.62705833848129,
              35.787920180133966
            ],
            [
              -78.62326817132903,
              35.787920180133966
            ],
            [
              -78.62326817132903,
              35.79171034728621
            ],
            [
              -78.62705833848129,
              35.79171034728621
            ],
            [
              -78.62705833848129,
              35.787920180133966
            ]
          ]
        ]
      }
    },
    {
      "type": "Feature",
      "properties": {
        "parcel_id": "P-024",
        "area_sqm": 12941.7,
        "zoning": "Commercial"
      },
      "geometry": {
        "type": "Polygon",
        "coordinates": [
          [
            [
              -78.6173456403325,
              35.78559277640807
            ],
            [
              -78.61246973975182,
              35.78559277640807
            ],
            [
              -78.61246973975182,
              35.79046867698877
            ],
            [
              -78.6173456403325,
              35.79046867698877
            ],
            [
              -78.6173456403325,
              35.78559277640807
            ]
          ]
        ]
      }
    },
    {
      "type": "Feature",
      "properties": {
        "parcel_id": "P-025",
        "area_sqm": 12122.1,
        "zoning": "Residential"
      },
      "geometry": {
        "type": "Polygon",
        "coordinates": [
          [
            [
              -78.68125902534489,
              35.80030228852902
            ],
            [
              -78.67664088825454,
              35.80030228852902
            ],
            [
              -78.67664088825454,
              35.80492042561938
            ],
            [
              -78.68125902534489,
              35.80492042561938
            ],
            [
              -78.68125902534489,
              35.80030228852902
            ]
          ]
        ]
      }
    },
    {
      "type": "Feature",
      "properties": {
        "parcel_id": "P-026",
        "area_sqm": 6718.7,
        "zoning": "Mixed-Use"
      },
      "geometry": {
        "type": "Polygon",
        "coordinates": [
          [
            [
              -78.66838004542254,
              35.80272797674986
            ],
            [
              -78.66504444224657,
              35.80272797674986
            ],
            [
              -78.66504444224657,
              35.806063579925826
            ],
            [
              -78.66838004542254,
              35.806063579925826
            ],
            [
              -78.66838004542254,
              35.80272797674986
            ]
          ]
        ]
      }
    },
    {
      "type": "Feature",
      "properties": {
        "parcel_id": "P-027",
        "area_sqm": 3023.8,
        "zoning": "Industrial"
      },
      "geometry": {
        "type": "Polygon",
        "coordinates": [
          [
            [
              -78.65672088237908,
              35.80060677382582
            ],
            [
              -78.65201881154802,
              35.80060677382582
            ],
            [
              -78.65201881154802,
              35.80530884465689
            ],
            [
              -78.65672088237908,
              35.80530884465689
            ],
            [
              -78.65672088237908,
              35.80060677382582
            ]
          ]
        ]
      }
    },
    {
      "type": "Feature",
      "properties": {
        "parcel_id": "P-028",
        "area_sqm": 3634.9,
        "zoning": "Industrial"
      },
      "geometry": {
        "type": "Polygon",
        "coordinates": [
          [
            [
              -78.64038712127959,
              35.80296503375939
            ],
            [
              -78.63578900277099,
              35.80296503375939
            ],
            [
              -78.63578900277099,
              35.807563152267974
            ],
            [
              -78.64038712127959,
              35.807563152267974
            ],
            [
              -78.64038712127959,
              35.80296503375939
            ]
          ]
        ]
      }
    },
    {
      "type": "Feature",
      "properties": {
        "parcel_id": "P-029",
        "area_sqm": 9885.7,
        "zoning": "Commercial"
      },
      "geometry": {
        "type": "Polygon",
        "coordinates": [
          [
            [
              -78.63029766951192,
              35.803495884037694
            ],
            [
              -78.62571464814965,
              35.803495884037694
            ],
            [
              -78.62571464814965,
              35.808078905399945
            ],
            [
              -78.63029766951192,
              35.808078905399945
            ],
            [
              -78.63029766951192,
              35.803495884037694
            ]
          ]
        ]
      }
    },
    {
      "type": "Feature",
      "properties": {
        "parcel_id": "P-030",
        "area_sqm": 11268.3,
        "zoning": "Industrial"
      },
      "geometry": {
        "type": "Polygon",
        "coordinates": [
          [
            [
              -78.61484707399495,
              35.80318085252386
            ],
            [
              -78.60977747109865,
              35.80318085252386
            ],
            [
              -78.60977747109865,
              35.80825045542016
            ],
            [
              -78.61484707399495,
              35.80825045542016
            ],
            [
              -78.61484707399495,
              35.80318085252386
            ]
          ]
        ]
      }
    }
  ]
}