{
  "type": "FeatureCollection",
  "features": [
    {
      "type": "Feature",
      "properties": {
        "road_id": "R-001",
        "name": "Main St",
        "type": "Collector",
        "speed_limit": 35
      },
      "geometry": {
        "type": "LineString",
        "coordinates": [
          [
            -78.68,
            35.74
          ],
          [
            -78.66000000000001,
            35.74
          ],
          [
            -78.64,
            35.74
          ],
          [
            -78.62,
            35.74
          ],
          [
            -78.60000000000001,
            35.74
          ]
        ]
      }
    },
    {
      "type": "Feature",
      "properties": {
        "road_id": "R-002",
        "name": "Oak Ave",
        "type": "Collector",
        "speed_limit": 25
      },
      "geometry": {
        "type": "LineString",
        "coordinates": [
          [
            -78.68,
            35.760000000000005
          ],
          [
            -78.66000000000001,
            35.760000000000005
          ],
          [
            -78.64,
            35.760000000000005
          ],
          [
            -78.62,
            35.760000000000005
          ],
          [
            -78.60000000000001,
            35.760000000000005
          ]
        ]
      }
    },
    {
      "type": "Feature",
      "properties": {
        "road_id": "R-003",
        "name": "Park Blvd",
        "type": "Arterial",
        "speed_limit": 25
      },
      "geometry": {
        "type": "LineString",
        "coordinates": [
          [
            -78.68,
            35.78
          ],
          [
            -78.66000000000001,
            35.78
          ],
          [
            -78.64,
            35.78
          ],
          [
            -78.62,
            35.78
          ],
          [
            -78.60000000000001,
            35.78
          ]
        ]
      }
    },
    {
      "type": "Feature",
      "properties": {
        "road_id": "R-004",
        "name": "Elm Dr",
        "type": "Arterial",
        "speed_limit": 35
      },
      "geometry": {
        "type": "LineString",
        "coordinates": [
          [
            -78.68,
            35.800000000000004
          ],
          [
            -78.66000000000001,
            35.800000000000004
          ],
          [
            -78.64,
            35.800000000000004
          ],
          [
            -78.62,
            35.800000000000004
          ],
          [
            -78.60000000000001,
            35.800000000000004
          ]
        ]
      }
    },
    {
      "type": "Feature",
      "properties": {
        "road_id": "R-005",
        "name": "Lake Rd",
        "type": "Arterial",
        "speed_limit": 45
      },
      "geometry": {
        "type": "LineString",
        "coordinates": [
          [
            -78.68,
            35.82
          ],
          [
            -78.66000000000001,
            35.82
          ],
          [
            -78.64,
            35.82
          ],
          [
            -78.62,
            35.82
          ],
          [
            -78.60000000000001,
            35.82
          ]
        ]
      }
    },
    {
      "type": "Feature",
      "properties": {
        "road_id": "R-006",
        "name": "1st St",
        "type": "Arterial",
        "speed_limit": 25
      },
      "geometry": {
        "type": "LineString",
        "coordinates": [
          [
            -78.68,
            35.74
          ],
          [
            -78.68,
            35.760000000000005
          ],
          [
            -78.68,
            35.78
          ],
          [
            -78.68,
            35.800000000000004
          ],
          [
            -78.68,
            35.82
          ]
        ]
      }
    },
    {
      "type": "Feature",
      "properties": {
        "road_id": "R-007",
        "name": "2nd St",
        "type": "Arterial",
        "speed_limit": 25
      },
      "geometry": {
        "type": "LineString",
        "coordinates": [
          [
            -78.66000000000001,
            35.74
          ],
          [
            -78.66000000000001,
            35.760000000000005
          ],
          [
            -78.66000000000001,
            35.78
          ],
          [
            -78.66000000000001,
            35.800000000000004
          ],
          [
            -78.66000000000001,
            35.82
          ]
        ]
      }
    },
    {
      "type": "Feature",
      "properties": {
        "road_id": "R-008",
        "name": "3rd St",
        "type": "Arterial",
        "speed_limit": 25
      },
      "geometry": {
        "type": "LineString",
        "coordinates": [
          [
            -78.64,
            35.74
          ],
          [
            -78.64,
            35.760000000000005
          ],
          [
            -78.64,
            35.78
          ],
          [
            -78.64,
            35.800000000000004
          ],
          [
            -78.64,
            35.82
          ]
        ]
      }
    },
    {
      "type": "Feature",
      "properties": {
        "road_id": "R-009",
        "name": "4th St",
        "type": "Arterial",
        "speed_limit": 25
      },
      "geometry": {
        "type": "LineString",
        "coordinates": [
          [
            -78.62,
            35.74
          ],
          [
            -78.62,
            35.760000000000005
          ],
          [
            -78.62,
            35.78
          ],
          [
            -78.62,
            35.800000000000004
          ],
          [
            -78.62,
            35.82
          ]
        ]
      }
    },
    {
      "type": "Feature",
      "properties": {
        "road_id": "R-010",
        "name": "5th St",
        "type": "Local",
        "speed_limit": 25
      },
      "geometry": {
        "type": "LineString",
        "coordinates": [
          [
            -78.60000000000001,
            35.74
          ],
          [
            -78.60000000000001,
            35.760000000000005
          ],
          [
            -78.60000000000001,
            35.78
          ],
          [
            -78.60000000000001,
            35.800000000000004
          ],
          [
            -78.60000000000001,
            35.82
          ]
        ]
      }
    }
  ]
}